GLOBALSTAR M023 [+]     
1 25621U 99004A   23282.77468861 -.00000173  00000+0 -38763-3 0  9994
2 25621  52.0092 130.3203 0009383 198.0469 242.3042 12.62442403137879
GLOBALSTAR M040 [-]     
1 25622U 99004B   23282.91353160 -.00000059  00000+0  24808-3 0  9993
2 25622  51.9894 133.1540 0001412  96.1938   8.5315 12.61956569137447
GLOBALSTAR M036 [-]     
1 25623U 99004C   23282.65832578 -.00000076  00000+0  99941-4 0  9990
2 25623  51.9969  65.2805 0010224 315.4730  57.3782 11.86553988105795
GLOBALSTAR M038 [-]     
1 25624U 99004D   23282.66465616 -.00000065  00000+0  24416-3 0  9999
2 25624  51.9988  47.0142 0001735 183.9321 189.5090 12.32485443126357
GLOBALSTAR M022 [-]     
1 25649U 99012A   23282.88713272 -.00000076  00000+0  13514-3 0  9992
2 25649  52.0024 166.2437 0003377  40.7970  41.3162 12.02470441102237
GLOBALSTAR M041 [-]     
1 25650U 99012B   23282.69777051 -.00000142  00000+0 -72637-3 0  9994
2 25650  52.0047  29.4120 0002267 168.7402 191.3486 11.96646652104475
GLOBALSTAR M046 [-]     
1 25651U 99012C   23282.79447595 -.00000195  00000+0 -11729-2 0  9995
2 25651  52.0035 139.1261 0003039  94.2269 346.2670 12.09377959109084
GLOBALSTAR M037 [+]     
1 25652U 99012D   23282.95455244 -.00000006  00000+0  54702-3 0  9993
2 25652  51.9991 260.6289 0001438 271.7492 123.9574 12.62385575133447
